#dP2023  7  6 12  0  0.00000000      96 __u+U ITR00 EXT  IAC
## 2269 388800.00000000   900.00000000 60131 0.5000000000000
+  117   C06C07C08C09C10C11C12C13C14C19C20C21C22C23C24C25C26
+        C27C28C29C30C32C33C34C35C36C37C38C39C40C41C42C43C44
+        C45C46E02E03E04E05E07E08E09E10E11E12E13E14E15E18E19
+        E21E24E25E26E27E30E31E34E36G01G02G03G04G05G06G07G08
+        G09G10G11G12G13G14G15G16G17G18G19G20G21G22G23G24G25
+        G26G27G28G29G30G31G32J02J03J04R01R02R03R04R05R07R08
+        R09R11R12R13R14R15R16R17R18R19R20R21R22R24R25  0  0
++        11 10  9 10  9  9  9 10  8 10  9  9  9  9  7  9  7
++         8  8  8  7  9  9  8  7  8  9 10 10  9  8  7  8 10
++         8  8  8  7  8  7  7  7  7  7  8  8  7  8  7  7  8
++         8  7  7  8  7  8  8  7  7  8  8  7  7  7  7  7  8
++         7  7  7  7  8  7  7  7  7  7  7  7  8  7  8  7  7
++         7  8  7  7  7  7  7  9  8  9  9  9  8  9  9  8  9
++         7  8  9  9  9  8  8  8  7  8  7  8  9  7  8  0  0
%c M  cc GPS ccc cccc cccc cccc cccc ccccc ccccc ccccc ccccc
%c cc cc ccc ccc cccc cccc cccc cccc ccccc ccccc ccccc ccccc
%f  0.0000000  0.000000000  0.00000000000  0.000000000000000
%f  0.0000000  0.000000000  0.00000000000  0.000000000000000
%i    0    0    0    0      0      0      0      0         0
%i    0    0    0    0      0      0      0      0         0
/* IAC                                ULTRA-RAPID PREDICTION
/* S/V CLOCKS ARE ALIGNED TO GNSS TIME                      
/* G:C1WC2W R:C1PC2P E:C1XC5X C:C2IC6I J:C1CC2S             
/* PCV:IGS20_2247 OL/AL:FES2004  NONE     YN ORB:CoN CLK:CoN
*  2023 07 06 20  0  0.00000000
PC06 -18124.926436  36186.397103  11309.824024   -164.658834
PC07  -1225.652688  36062.041288  22039.076796   -282.602558
PC08  -9007.287958  19439.770135 -36347.221961    436.971007
PC09 -10377.625037  35006.901640  21001.468152    448.032590
PC10   3731.008693  38137.359572  18494.514350   -106.791253
PC11   6454.651575 -25769.988774   8562.041954    712.318735
PC12  16744.236454 -20118.957322  -9624.917234    767.617363
PC13  -1431.783683  21824.989816 -35903.465937    310.458109
PC14  -4571.886342 -23363.098405  14523.236795    522.862669
PC19  12281.003950  24301.871182  -6155.811175   -934.936458
PC20  -2207.979007  19759.942936 -19586.522140    454.139114
PC21  16623.498215  -2770.520164  22260.402409   -931.471129
PC22  20437.049965  15143.760009  11510.979415   -408.094006
PC23 -23750.769832  -7028.034226 -12843.637155   -954.540437
PC24  14647.695011 -14858.883024 -18525.800571    143.676965
PC25  -7853.354034 -15096.557995 -22125.043451    162.441068
PC26  26589.995931  -6802.038800  -4960.675761   -145.031379
PC27 -18555.915069  13099.740738  16183.919855    165.755958
PC28 -15092.609547  -5314.401594  22863.409696    123.437073
PC29   2544.355568  22757.211096 -15960.618654    143.738678
PC30 -11467.701937  25409.457481   1034.956852     -1.941694
PC32 -16626.546020   2845.708865 -22215.008826   -541.475739
PC33 -12315.092406 -24227.220123   6285.845116   -908.226756
PC34  10699.250267 -25782.169485    255.719122    209.021683
PC35  15165.169116   5281.183478 -22839.107246    593.774467
PC36   6602.695889  15479.316496  22288.729217   -343.527905
PC37 -27071.259619   5544.982879   3991.001339   -790.662943
PC38 -17528.033121  19902.524115 -32790.880137     89.859667
PC39 -21064.206564  36171.940492   3790.573811     -3.689191
PC40  -5450.182120  32599.991816  26333.725583    -28.557059
PC41 -20392.228075 -15615.894268 -10845.424887   -907.366608
PC42   3501.959033 -18848.088091  20308.922408   -621.906865
PC43  -1893.983778 -23277.167924  15274.186898     29.500018
PC44  18190.145635 -13565.159355 -16278.440117    160.540024
PC45  24026.502363   6693.409560  12503.810348   -119.296646
PC46 -13277.044748  15127.624867  19348.439088    -66.922428
PE02   1945.736429 -17384.131843 -23879.014704     48.242913
PE03   2915.711039 -28679.946948   6683.670258    -33.461612
PE04   9688.747707  25485.082108  11541.193846   -160.856429
PE05  13998.673420 -15115.974275  21258.152575     -2.848072
PE07 -16763.251054  -7532.556998 -23193.407828    -58.030664
PE08  -9445.648879 -25685.212933 -11258.162027   -110.319778
PE09  16623.476457   7730.875775  23248.483206    -75.447332
PE10  16672.169866   6995.317639 -23449.835072   -546.569843
PE11  23566.115642  -1767.945116 -17849.169782   2417.614949
PE12   7928.738518  14035.930767 -24836.307064   -608.045553
PE13 -23169.107553   1237.833564  18372.955204    -19.316573
PE14 -10922.115691  23158.162974  12283.653712    274.734451
PE15  -7523.639974 -14195.276543  24857.362918    -35.046117
PE18  17102.935523 -11499.057969 -19778.030031    265.637703
PE19  -4671.646433  27784.776737  -9067.961751  -2135.675268
PE21 -20020.692522   6042.299338  20949.894278   -539.192062
PE24  27399.866634   9951.263894  -5097.647755   -195.002295
PE25  20284.284762  -5766.168898 -20763.242011   -607.897345
PE26 -24828.066109  16113.943587    474.423401    155.310093
PE27 -27478.483779  -9404.912642   5732.179499    -92.666533
PE30 -18183.084704 -19350.639181 -13094.510972   -314.228919
PE31  18659.087439  19150.330460  12711.163346      0.169257
PE34  12257.014523 -21122.734412  16705.417838    -54.679089
PE36  25048.601070 -15729.363300  -1236.732616    -82.033919
PG01  -7761.547116  18235.182082 -17848.529448    174.238525
PG02 -13016.639200  19594.998791 -11674.605147   -578.793211
PG03   3448.892737  17200.155280 -20117.971230   -243.141244
PG04   -368.627319  26491.086275   -368.026002     88.330229
PG05  13421.901781  -9427.380336  20734.211092   -133.884480
PG06  22332.013453  -2632.949620 -14153.042445    580.197903
PG07   8957.435346  12884.796361  21905.614956    132.542101
PG08  -6956.606164  22530.277579  11751.815827   -130.888308
PG09   7457.724418  23881.397656   8775.643321   -118.596423
PG10 -24194.040789 -11044.696624  -2527.879477    -44.104765
PG11  23281.406037 -12733.728474   -122.318948   -264.981662
PG12   1324.098690 -16448.634502 -21103.094795   -397.492938
PG13  12970.996348 -16201.546554  16269.621992    543.664048
PG14  23022.680553  13419.513479    134.351560    113.939380
PG15   3847.043668 -23706.382977  10593.289138     55.568173
PG16 -17599.443097   4391.906492  19248.531896   -483.752856
PG17  13260.985853  10557.530923 -19993.200930    720.367509
PG18 -11081.191855 -10584.798069  21708.081991   -335.606676
PG19  14856.163882   2800.839943 -22067.291959    340.338899
PG20  21246.832138  -4365.245037  15233.417265    424.095259
PG21 -14900.142046  19120.715018  -9208.078193    152.435887
PG22 -14993.198972   1449.551300 -21414.716277    508.889154
PG23 -18832.325515 -16437.609889   9217.130654     40.459317
PG24  10286.237502 -20334.570167 -13649.668776   -249.207460
PG25 -12261.203689 -18498.400279 -15098.500650    454.466639
PG26 -24318.924044  -2270.679265  10726.087763    237.223841
PG27 -12788.540396  12610.886674  19173.333296      2.207302
PG28 -21543.471164   1367.487471 -15493.186701     83.261790
PG29  -4057.071531 -25031.156438   7679.879277   -604.859607
PG30  17651.802150   5833.393941  19178.576887   -506.149825
PG31 -24377.514862   9588.633371  -5766.098393   -219.572858
PG32 -14726.759039  -7660.786947 -20595.677790   -515.724725
PJ02 -27963.159147  20818.102374  28790.504510     -1.128787
PJ03 -33309.809907  26026.204674   5854.270439      0.032978
PJ04 -20644.647605  24553.317409 -22245.907049     96.398416
PR01 -12199.593406 -22311.357455  -1916.807948     60.866601
PR02 -14298.473458 -10965.684924 -18040.534165    -22.620120
PR03  -8675.792952   6929.323513 -22915.153389     81.047541
PR04   1685.446754  20468.391623 -15092.040822    194.015775
PR05  10972.284784  22995.904542    952.588911    115.351121
PR07   8231.001164  -7840.396104  22879.108657     59.596623
PR08  -1819.791384 -20603.299356  15007.795397    -71.551107
PR09  25000.470571   3433.900603   4030.764436    129.748470
PR11   7151.504741 -10104.393818 -22291.251132    -97.727725
PR12 -13686.190067 -10190.350806 -18935.081933     28.819220
PR13 -24371.473094  -4544.689377  -6008.165106    -36.811653
PR14 -21466.512905   4736.863517  12936.335023     24.901327
PR15  -5819.020597  10426.102944  22563.977507     88.035312
PR16  13473.656764  10052.168150  19214.337152     16.382278
PR17 -16987.590489  16391.063459   9722.974705     -2.523737
PR18 -11698.955950  21555.724575  -6918.136490     90.257676
PR19  -1914.514010  16606.116111 -19277.275040   -238.892871
PR20  12747.128515   -473.208215 -22095.572680    -96.088328
PR21  16941.088962 -17030.255631  -8543.431576    -20.721725
PR22  11750.385067 -21258.210707   7829.151031     90.638652
PR24 -13386.986862   1229.150205  21691.984465    -15.329206
PR25  17798.204408 -15431.626948  -9757.704465   -658.366974
EOF
